     2.10           G: GLONASS NAV DATA                     RINEX VERSION / TYPE
teqc  2015Jun23                         20210709 01:25:49UTCPGM / RUN BY / DATE
Linux 2.4.21-27.ELsmp|Opteron|gcc -static|Linux x86_64|=+   COMMENT
  2021     6    15    3.026798367500D-08                    CORR TO SYSTEM TIME
                                                            END OF HEADER
13 21  6 16 18 15  0.0-5.634222179651D-05-0.000000000000D+00 6.480000000000D+04
   -2.043544433594D+03-4.280281066895D-01-9.313225746155D-10 0.000000000000D+00
    2.036620117188D+04-2.044169425964D+00-0.000000000000D+00-2.000000000000D+00
    1.521233740234D+04 2.676370620728D+00-2.793967723846D-09 0.000000000000D+00
 1 21  6 16 18 15  0.0 8.096080273390D-05 0.000000000000D+00 6.480000000000D+04
   -1.937416406250D+04 1.259374618530D+00-2.793967723846D-09 0.000000000000D+00
    1.127629980469D+04-1.100835800171D+00 1.862645149231D-09 1.000000000000D+00
   -1.218308447266D+04-3.018427848816D+00-0.000000000000D+00 0.000000000000D+00
 2 21  6 16 18 15  0.0 4.826067015529D-04 9.094947017729D-13 6.480000000000D+04
   -1.438851074219D+04-7.159986495972D-01-1.862645149231D-09 0.000000000000D+00
    1.930010009766D+04 9.061727523804D-01 0.000000000000D+00-4.000000000000D+00
    8.394540527344D+03-3.333768844604D+00-1.862645149231D-09 0.000000000000D+00
14 21  6 16 18 15  0.0 6.540305912495D-05 0.000000000000D+00 6.480000000000D+04
    7.363311523438D+03 2.119436264038D-01-9.313225746155D-10 0.000000000000D+00
    2.434022265625D+04 2.463588714600D-01-0.000000000000D+00-7.000000000000D+00
   -2.117141113281D+03 3.543918609619D+00-9.313225746155D-10 0.000000000000D+00
17 21  6 16 18 15  0.0 4.332158714533D-04 2.728484105319D-12 6.480000000000D+04
    1.109539550781D+04-2.516490936279D+00-9.313225746155D-10 0.000000000000D+00
    1.235063476562D+04-8.526678085327D-01 0.000000000000D+00 4.000000000000D+00
   -1.934933886719D+04-1.990447998047D+00 9.313225746155D-10 0.000000000000D+00
 3 21  6 16 18 15  0.0 3.783032298088D-05 9.094947017729D-13 6.492000000000D+04
   -5.446098632812D+02-2.012080192566D+00-0.000000000000D+00 0.000000000000D+00
    1.447319775391D+04 2.046335220337D+00-9.313225746155D-10 5.000000000000D+00
    2.103123388672D+04-1.468048095703D+00-2.793967723846D-09 0.000000000000D+00
15 21  6 16 18 15  0.0 1.032175496221D-04-0.000000000000D+00 6.513000000000D+04
    1.219955126953D+04 6.923694610596D-01-0.000000000000D+00 0.000000000000D+00
    1.389919335938D+04 2.307761192322D+00 0.000000000000D+00 0.000000000000D+00
   -1.754852685547D+04 2.305720329285D+00 9.313225746155D-10 0.000000000000D+00
13 21  6 16 18 45  0.0-5.634315311909D-05-0.000000000000D+00 6.660000000000D+04
   -3.265073730469D+03-9.416990280151D-01-0.000000000000D+00 0.000000000000D+00
    1.624884277344D+04-2.484989166260D+00-0.000000000000D+00-2.000000000000D+00
    1.937897753906D+04 1.923116683960D+00-2.793967723846D-09 0.000000000000D+00
14 21  6 16 18 45  0.0 6.540399044752D-05 0.000000000000D+00 6.660000000000D+04
    7.509794921875D+03-8.677005767822D-02-9.313225746155D-10 0.000000000000D+00
    2.401588427734D+04-5.917329788208D-01-0.000000000000D+00-7.000000000000D+00
    4.261346679688D+03 3.497324943542D+00-9.313225746155D-10 0.000000000000D+00
 1 21  6 16 18 45  0.0 8.096173405647D-05 0.000000000000D+00 6.660000000000D+04
   -1.686124023438D+04 1.487721443176D+00-1.862645149231D-09 0.000000000000D+00
    8.655852050781D+03-1.806090354919D+00 1.862645149231D-09 1.000000000000D+00
   -1.707533447266D+04-2.382100105286D+00 0.000000000000D+00 0.000000000000D+00
 2 21  6 16 18 45  0.0 4.826085641980D-04 9.094947017729D-13 6.660000000000D+04
   -1.505740917969D+04-4.857635498047D-02-1.862645149231D-09 0.000000000000D+00
    2.044491455078D+04 3.298635482788D-01 9.313225746155D-10-4.000000000000D+00
    2.146232910156D+03-3.563662528992D+00-1.862645149231D-09 0.000000000000D+00
 3 21  6 16 18 45  0.0 3.783032298088D-05 9.094947017729D-13 6.660000000000D+04
   -3.634656738281D+03-1.408197402954D+00-9.313225746155D-10 0.000000000000D+00
    1.811231250000D+04 1.950052261353D+00-0.000000000000D+00 5.000000000000D+00
    1.761210937500D+04-2.306592941284D+00-2.793967723846D-09 0.000000000000D+00
15 21  6 16 18 45  0.0 1.032175496221D-04-0.000000000000D+00 6.660000000000D+04
    1.355300341797D+04 7.718915939331D-01-9.313225746155D-10 0.000000000000D+00
    1.741802783203D+04 1.578802108765D+00 0.000000000000D+00 0.000000000000D+00
   -1.277256054688D+04 2.966355323792D+00 0.000000000000D+00 0.000000000000D+00
13 21  6 16 19 15  0.0-5.634408444166D-05-0.000000000000D+00 6.840000000000D+04
   -5.446441894531D+03-1.476421356201D+00-0.000000000000D+00 0.000000000000D+00
    1.159461474609D+04-2.636727333069D+00-0.000000000000D+00-2.000000000000D+00
    2.204593603516D+04 1.020885467529D+00-2.793967723846D-09 0.000000000000D+00
14 21  6 16 19 15  0.0 6.540492177010D-05 0.000000000000D+00 6.840000000000D+04
    6.931808593750D+03-5.827674865723D-01-9.313225746155D-10 0.000000000000D+00
    2.229514892578D+04-1.288715362549D+00-0.000000000000D+00-7.000000000000D+00
    1.031081835938D+04 3.180747032166D+00-1.862645149231D-09 0.000000000000D+00
 2 21  6 16 19 15  0.0 4.826104268432D-04 0.000000000000D+00 6.840000000000D+04
   -1.466686962891D+04 4.474678039551D-01-1.862645149231D-09 0.000000000000D+00
    2.038198730469D+04-4.213914871216D-01 1.862645149231D-09-4.000000000000D+00
   -4.268439453125D+03-3.517275810242D+00-9.313225746155D-10 0.000000000000D+00
 3 21  6 16 19 15  0.0 3.783218562603D-05 0.000000000000D+00 6.840000000000D+04
   -5.600445312500D+03-7.815074920654D-01-1.862645149231D-09 0.000000000000D+00
    2.132345849609D+04 1.572112083435D+00 0.000000000000D+00 5.000000000000D+00
    1.283384716797D+04-2.968336105347D+00-2.793967723846D-09 0.000000000000D+00
15 21  6 16 19 15  0.0 1.032166182995D-04-0.000000000000D+00 6.840000000000D+04
    1.482742285156D+04 6.013574600220D-01-9.313225746155D-10 0.000000000000D+00
    1.953260839844D+04 7.663917541504D-01-0.000000000000D+00 0.000000000000D+00
   -7.007933593750D+03 3.397120475769D+00-0.000000000000D+00 0.000000000000D+00
24 21  6 16 19 15  0.0 4.678312689066D-05 1.818989403546D-12 6.879000000000D+04
   -1.750622119141D+04-2.335284233093D+00-1.862645149231D-09 0.000000000000D+00
    7.384309570312D+03 4.474353790283D-02 1.862645149231D-09 2.000000000000D+00
   -1.701719824219D+04 2.419122695923D+00 0.000000000000D+00 0.000000000000D+00
17 21  6 16 19 15  0.0 4.332270473242D-04 2.728484105319D-12 6.888000000000D+04
    4.962949218750D+02-3.181689262390D+00-1.862645149231D-09 0.000000000000D+00
    1.056057519531D+04-6.235980987549D-02 1.862645149231D-09 4.000000000000D+00
   -2.321184033203D+04-9.981155395508D-02 9.313225746155D-10 0.000000000000D+00
 4 21  6 16 19 15  0.0 9.161792695522D-05 1.818989403546D-12 7.002000000000D+04
    6.236415039062D+03-1.549999237061D+00 0.000000000000D+00 0.000000000000D+00
    1.018313232422D+04 2.665223121643D+00-9.313225746155D-10 6.000000000000D+00
    2.257123876953D+04-7.755117416382D-01-2.793967723846D-09 0.000000000000D+00
24 21  6 16 19 45  0.0 4.678592085838D-05 1.818989403546D-12 7.020000000000D+04
   -2.110413964844D+04-1.630293846130D+00-9.313225746155D-10 0.000000000000D+00
    7.738942382812D+03 3.163709640503D-01 2.793967723846D-09 2.000000000000D+00
   -1.206112597656D+04 3.051836967468D+00-0.000000000000D+00 0.000000000000D+00
15 21  6 16 19 45  0.0 1.032166182995D-04-0.000000000000D+00 7.020000000000D+04
    1.556912353516D+04 1.843795776367D-01-9.313225746155D-10 0.000000000000D+00
    2.019615527344D+04-1.445674896240D-02-0.000000000000D+00 0.000000000000D+00
   -7.011259765625D+02 3.564911842346D+00-9.313225746155D-10 0.000000000000D+00
 2 21  6 16 19 45  0.0 4.826113581657D-04 0.000000000000D+00 7.020000000000D+04
   -1.358832568359D+04 7.086277008057D-01-1.862645149231D-09 0.000000000000D+00
    1.888243505859D+04-1.247885704041D+00 2.793967723846D-09-4.000000000000D+00
   -1.035150830078D+04-3.197530746460D+00-0.000000000000D+00 0.000000000000D+00
 3 21  6 16 19 45  0.0 3.783311694860D-05 0.000000000000D+00 7.020000000000D+04
   -6.499558593750D+03-2.399826049805D-01-1.862645149231D-09 0.000000000000D+00
    2.362042871094D+04 9.431085586548D-01 9.313225746155D-10 5.000000000000D+00
    7.063575683594D+03-3.401538848877D+00-1.862645149231D-09 0.000000000000D+00
 4 21  6 16 19 45  0.0 9.162165224552D-05 1.818989403546D-12 7.020000000000D+04
    3.913133789062D+03-1.022068977356D+00-0.000000000000D+00 0.000000000000D+00
    1.495093945312D+04 2.582438468933D+00-9.313225746155D-10 6.000000000000D+00
    2.032354736328D+04-1.705826759338D+00-2.793967723846D-09 0.000000000000D+00
14 21  6 16 19 45  0.0 6.540585309267D-05 0.000000000000D+00 7.020000000000D+04
    5.339936035156D+03-1.197762489319D+00-9.313225746155D-10 0.000000000000D+00
    1.951221777344D+04-1.760795593262D+00-0.000000000000D+00-7.000000000000D+00
    1.556441503906D+04 2.618768692017D+00-2.793967723846D-09 0.000000000000D+00
17 21  6 16 19 45  0.0 4.332326352596D-04 2.728484105319D-12 7.020000000000D+04
   -5.165253417969D+03-3.056599617004D+00-9.313225746155D-10 0.000000000000D+00
    1.087557763672D+04 4.051513671875D-01 1.862645149231D-09 4.000000000000D+00
   -2.249202246094D+04 8.943119049072D-01 9.313225746155D-10 0.000000000000D+00
15 21  6 16 20 15  0.0 1.032156869769D-04-0.000000000000D+00 7.200000000000D+04
    1.537120458984D+04-4.313297271729D-01-9.313225746155D-10 0.000000000000D+00
    1.956375341797D+04-6.575393676758D-01-0.000000000000D+00 0.000000000000D+00
    5.659937500000D+03 3.457072257996D+00-1.862645149231D-09 0.000000000000D+00
 2 21  6 16 20 15  0.0 4.826132208109D-04 0.000000000000D+00 7.200000000000D+04
   -1.227019433594D+04 7.140378952026D-01-9.313225746155D-10 0.000000000000D+00
    1.591391357422D+04-2.033957481384D+00 2.793967723846D-09-4.000000000000D+00
   -1.562984375000D+04-2.628942489624D+00 0.000000000000D+00 0.000000000000D+00
